NORAD_CAT_ID,OBJECT_NAME,OBJECT_TYPE,EPOCH,MEAN_MOTION,ECCENTRICITY,INCLINATION,RA_OF_ASC_NODE,ARG_OF_PERICENTER,MEAN_ANOMALY,BSTAR,MEAN_MOTION_DOT,MEAN_MOTION_DDOT,TLE_LINE0,TLE_LINE1,TLE_LINE2,SEMIMAJOR_AXIS,PERIOD,APOGEE,PERIGEE,DECAYED
53179.0,STARLINK-4276,PAYLOAD,2022-12-21 22:00:00,15.19013084,0.0001486999999999,53.2173,353.1304,45.4342,320.9371,-0.058619,-0.01145591,0.0,0 STARLINK-4276,1 53179U 22083AZ  22355.91667824 -.01145591  00000-0 -58619-1 0  9998,2 53179  53.2173 353.1304 0001487  45.4342 320.9371 15.19013084 25351,6886.959,94.798,509.848,507.8,0.0
53179.0,STARLINK-4276,PAYLOAD,2022-12-22 14:00:01,15.17388455,0.0001468,53.2173,350.0956,48.8189,3.2225,-0.061679,-0.01149584,0.0,0 STARLINK-4276,1 53179U 22083AZ  22356.58334491 -.01149584  00000-0 -61679-1 0  9999,2 53179  53.2173 350.0956 0001468  48.8189   3.2225 15.17388455  1308,6891.874,94.9,514.751,512.727,0.0
53179.0,STARLINK-4276,PAYLOAD,2022-12-22 22:00:00,15.16572532,0.0001462,53.2173,348.5788,53.49800000000001,19.9145,-0.062959,-0.01146447,0.0,0 STARLINK-4276,1 53179U 22083AZ  22356.91667824 -.01146447  00000-0 -62959-1 0  9992,2 53179  53.2173 348.5788 0001462  53.4980  19.9145 15.16572532  1303,6894.346,94.951,517.219,515.203,0.0
53179.0,STARLINK-4276,PAYLOAD,2022-12-23 00:00:00,15.16370303,0.000174,53.2176,348.2006,49.8391,118.7619,-0.063374,-0.01147307,0.0,0 STARLINK-4276,1 53179U 22083AZ  22357.00001157 -.01147307  00000-0 -63374-1 0  9992,2 53179  53.2176 348.2006 0001740  49.8391 118.7619 15.16370303 25515,6894.959,94.964,518.023,515.624,0.0
53179.0,STARLINK-4276,PAYLOAD,2022-12-23 14:00:01,15.1496836,0.0001863,53.2159,345.555,38.1186,75.0864,-0.067858,-0.01177642,0.0,0 STARLINK-4276,1 53179U 22083AZ  22357.58334491 -.01177642  00000-0 -67858-1 0  9991,2 53179  53.2159 345.5550 0001863  38.1186  75.0864 15.14968360  1301,6899.212,95.051,522.362,519.7909999999998,0.0
53179.0,STARLINK-4276,PAYLOAD,2022-12-23 22:00:01,15.14143165,0.0001967,53.2163,344.0441,35.9014,95.8093,-0.068535,-0.01163081,0.0,0 STARLINK-4276,1 53179U 22083AZ  22357.91668981 -.01163081  00000-0 -68535-1 0  9997,2 53179  53.2163 344.0441 0001967  35.9014  95.8093 15.14143165  1301,6901.718000000003,95.103,524.941,522.225,0.0
53179.0,STARLINK-4276,PAYLOAD,2022-12-24 00:00:00,15.13929222,0.0001889,53.217,343.6674,38.7715,187.3369,-0.067951,-0.01147488,0.0,0 STARLINK-4276,1 53179U 22083AZ  22358.00001157 -.01147488  00000-0 -67951-1 0  9998,2 53179  53.2170 343.6674 0001889  38.7715 187.3369 15.13929222 25667,6902.368,95.117,525.5369999999998,522.929,0.0
53179.0,STARLINK-4276,PAYLOAD,2022-12-24 14:00:01,15.12514782,0.0001866,53.2161,341.0317,40.0914,125.4938,-0.071633,-0.01161185,0.0,0 STARLINK-4276,1 53179U 22083AZ  22358.58334491 -.01161185  00000-0 -71633-1 0  9993,2 53179  53.2161 341.0317 0001866  40.0914 125.4938 15.12514782  1305,6906.670999999999,95.206,529.825,527.247,0.0
53179.0,STARLINK-4276,PAYLOAD,2022-12-24 22:00:00,15.11707425,0.0002012,53.2164,339.5266,36.1992,144.8856,-0.073885,-0.01170145,0.0,0 STARLINK-4276,1 53179U 22083AZ  22358.91667824 -.01170145  00000-0 -73885-1 0  9996,2 53179  53.2164 339.5266 0002012  36.1992 144.8856 15.11707425 25801,6909.13,95.257,532.385,529.605,0.0
53179.0,STARLINK-4276,PAYLOAD,2022-12-25 14:00:01,15.10078547,0.0001922,53.216,336.5252,41.2078,167.9417,-0.075889,-0.01150232,0.0,0 STARLINK-4276,1 53179U 22083AZ  22359.58334491 -.01150232  00000-0 -75889-1 0  9992,2 53179  53.2160 336.5252 0001922  41.2078 167.9417 15.10078547  1303,6914.097,95.359,537.2909999999998,534.633,0.0
53179.0,STARLINK-4276,PAYLOAD,2022-12-25 22:00:00,15.091509699999998,0.0002064,53.2165,335.0257,37.589,184.1518,-0.027579,-0.00418002,0.0,0 STARLINK-4276,1 53179U 22083AZ  22359.91667824 -.00418002  00000-0 -27579-1 0  9992,2 53179  53.2165 335.0257 0002064  37.5890 184.1518 15.09150970 25954,6916.93,95.418,540.2230000000002,537.367,0.0
53179.0,STARLINK-4276,PAYLOAD,2022-12-26 00:00:00,15.09004019,0.0002173,53.2173,334.6525,37.259,277.4818,-0.016161,-0.00249827,0.0,0 STARLINK-4276,1 53179U 22083AZ  22360.00001157 -.00249827  00000-0 -16161-1 0  9997,2 53179  53.2173 334.6525 0002173  37.2590 277.4818 15.09004019  1305,6917.379,95.427,540.747,537.741,0.0
53179.0,STARLINK-4276,PAYLOAD,2022-12-26 14:00:01,15.08869724,0.0001757,53.2143,332.0294,33.723,211.2633,-0.0013799,-0.000222,0.0,0 STARLINK-4276,1 53179U 22083AZ  22360.58334491 -.00022200  00000-0 -13799-2 0  9999,2 53179  53.2143 332.0294 0001757  33.7230 211.2633 15.08869724 26057,6917.79,95.436,540.87,538.439,0.0
53179.0,STARLINK-4276,PAYLOAD,2022-12-27 00:00:00,15.08897402,0.0001716,53.2154,330.1583,40.4726,309.0424,-0.0027064,-0.00043171,0.0,0 STARLINK-4276,1 53179U 22083AZ  22361.00001157 -.00043171  00000-0 -27064-2 0  9997,2 53179  53.2154 330.1583 0001716  40.4726 309.0424 15.08897402  1308,6917.705,95.434,540.757,538.383,0.0
53179.0,STARLINK-4276,PAYLOAD,2022-12-27 06:00:00,15.08862554,0.0001916,53.2151,329.0372,37.3573,230.8811,-0.0017296,-0.00027727,0.0,0 STARLINK-4276,1 53179U 22083AZ  22361.25001157 -.00027727  00000-0 -17296-2 0  9999,2 53179  53.2151 329.0372 0001916  37.3573 230.8811 15.08862554 26156,6917.811,95.436,541.002,538.351,0.0
53179.0,STARLINK-4276,PAYLOAD,2022-12-27 14:00:01,15.08876427,0.0001746,53.2151,327.5399,35.4753,244.3744,-0.0032524,-0.00051731,0.0,0 STARLINK-4276,1 53179U 22083AZ  22361.58334491 -.00051731  00000-0 -32524-2 0  9998,2 53179  53.2151 327.5399 0001746  35.4753 244.3744 15.08876427  1307,6917.769,95.435,540.842,538.4259999999998,0.0
53179.0,STARLINK-4276,PAYLOAD,2022-12-27 22:00:00,15.08840242,0.0001607,53.2153,326.0427,39.5935,251.871,0.0019704,0.0003121,0.0,0 STARLINK-4276,1 53179U 22083AZ  22361.91667824  .00031210  00000-0  19704-2 0  9997,2 53179  53.2153 326.0427 0001607  39.5935 251.8710 15.08840242 26251,6917.88,95.438,540.856,538.633,0.0
53179.0,STARLINK-4276,PAYLOAD,2022-12-28 14:00:01,15.08892085,0.0001724,53.2149,323.0506,36.1928,278.4921,-0.0057033,-0.00090052,0.0,0 STARLINK-4276,1 53179U 22083AZ  22362.58334491 -.00090052  00000-0 -57033-2 0  9990,2 53179  53.2149 323.0506 0001724  36.1928 278.4921 15.08892085 26358,6917.721,95.434,540.779,538.394,0.0
53179.0,STARLINK-4276,PAYLOAD,2022-12-28 22:00:00,15.08833822,0.0001578,53.215,321.5535,40.0179,286.283,-0.0013866,-0.00022284,0.0,0 STARLINK-4276,1 53179U 22083AZ  22362.91667824 -.00022284  00000-0 -13866-2 0  9994,2 53179  53.2150 321.5535 0001578  40.0179 286.2830 15.08833822  1302,6917.899,95.438,540.856,538.673,0.0
53179.0,STARLINK-4276,PAYLOAD,2022-12-29 06:00:02,15.08790689,0.0001773,53.2148,320.0588,33.1302,304.8178,0.0010537,0.00016499,0.0,0 STARLINK-4276,1 53179U 22083AZ  22363.25002315  .00016499  00000-0  10537-2 0  9991,2 53179  53.2148 320.0588 0001773  33.1302 304.8178 15.08790689 26468,6918.031,95.441,541.123,538.67,0.0
53179.0,STARLINK-4276,PAYLOAD,2022-12-29 14:00:01,15.08816117,0.0001634,53.2143,318.5613,33.785,315.6431,-0.0010492,-0.00016936,0.0,0 STARLINK-4276,1 53179U 22083AZ  22363.58334491 -.00016936  00000-0 -10492-2 0  9998,2 53179  53.2143 318.5613 0001634  33.7850 315.6431 15.08816117  1307,6917.953,95.439,540.9490000000002,538.688,0.0
53179.0,STARLINK-4276,PAYLOAD,2022-12-30 14:00:01,15.08865788,0.0001658,53.215,314.0718,38.1002,346.0783,0.00028766,4.296e-05,0.0,0 STARLINK-4276,1 53179U 22083AZ  22364.58334491  .00004296  00000-0  28766-3 0  9997,2 53179  53.2150 314.0718 0001658  38.1002 346.0783 15.08865788 26668,6917.802,95.436,540.814,538.52,0.0
53179.0,STARLINK-4276,PAYLOAD,2022-12-31 05:47:28,15.08859807,0.0001641999999999,53.2148,311.1189,30.1391,329.9695,0.00048959,7.517e-05,0.0,0 STARLINK-4276,1 53179U 22083AZ  22365.24129820  .00007517  00000-0  48959-3 0  9994,2 53179  53.2148 311.1189 0001642  30.1391 329.9695 15.08859807 26129,6917.82,95.436,540.821,538.549,0.0
53179.0,STARLINK-4276,PAYLOAD,2022-12-31 13:44:23,15.08854822,0.0001996,53.2156,309.6307,40.8426,319.2716,0.00045281,6.929e-05,0.0,0 STARLINK-4276,1 53179U 22083AZ  22365.57249976  .00006929  00000-0  45281-3 0  9996,2 53179  53.2156 309.6307 0001996  40.8426 319.2716 15.08854822 26174,6917.835,95.437,541.081,538.319,0.0
53179.0,STARLINK-4276,PAYLOAD,2023-01-01 05:38:16,15.08832798,0.0001885999999999,53.2158,306.656,44.0017,316.1125,-0.00015227,-2.71e-05,0.0,0 STARLINK-4276,1 53179U 22083AZ  23001.23490761 -.00002710  00000-0 -15227-3 0  9990,2 53179  53.2158 306.6560 0001886  44.0017 316.1125 15.08832798 26914,6917.901999999999,95.438,541.072,538.4630000000002,0.0
53179.0,STARLINK-4276,PAYLOAD,2023-01-01 13:35:12,15.08822015,0.0001797,53.2165,305.1688,43.0847,317.0286,-0.00028723,-4.854e-05,0.0,0 STARLINK-4276,1 53179U 22083AZ  23001.56611515 -.00004854  00000-0 -28723-3 0  9994,2 53179  53.2165 305.1688 0001797  43.0847 317.0286 15.08822015 26322,6917.935,95.439,541.044,538.557,0.0
53179.0,STARLINK-4276,PAYLOAD,2023-01-01 19:56:44,15.08823071,0.0001447,53.2172,303.9776,39.2385,320.8712,-0.00036278,-6.054e-05,0.0,0 STARLINK-4276,1 53179U 22083AZ  23001.83107511 -.00006054  00000-0 -36278-3 0  9998,2 53179  53.2172 303.9776 0001447  39.2385 320.8712 15.08823071 27005,6917.932,95.439,540.798,538.7959999999998,0.0
53179.0,STARLINK-4276,PAYLOAD,2023-01-02 05:29:03,15.08834119,0.0001993,53.2163,302.1961,45.0084,315.1069,-0.0001375,-2.476e-05,0.0,0 STARLINK-4276,1 53179U 22083AZ  23002.22851354 -.00002476  00000-0 -13750-3 0  9997,2 53179  53.2163 302.1961 0001993  45.0084 315.1069 15.08834119 27062,6917.898,95.438,541.1419999999998,538.385,0.0
53179.0,STARLINK-4276,PAYLOAD,2023-01-02 13:25:59,15.08839347,0.0001909,53.2166,300.7095,45.5239,314.5908,4.9152e-05,4.94e-06,0.0,0 STARLINK-4276,1 53179U 22083AZ  23002.55971324  .00000494  00000-0  49152-4 0  9995,2 53179  53.2166 300.7095 0001909  45.5239 314.5908 15.08839347 26478,6917.882,95.438,541.068,538.427,0.0
